[{"OBJECT_NAME":"YAM-7","OBJECT_ID":"2024-149AN","EPOCH":"2026-03-09T17:13:55.117920","MEAN_MOTION":15.30304554,"ECCENTRICITY":0.00019733,"INCLINATION":97.3828,"RA_OF_ASC_NODE":149.4631,"ARG_OF_PERICENTER":296.5121,"MEAN_ANOMALY":63.5918,"EPHEMERIS_TYPE":0,"CLASSIFICATION_TYPE":"U","NORAD_CAT_ID":60504,"ELEMENT_SET_NO":999,"REV_AT_EPOCH":8683,"BSTAR":0.00030984439,"MEAN_MOTION_DOT":9.009e-5,"MEAN_MOTION_DDOT":0},{"OBJECT_NAME":"STARLINK-34226","OBJECT_ID":"2025-133Y","EPOCH":"2026-03-09T10:58:07.142304","MEAN_MOTION":15.30201777,"ECCENTRICITY":0.00010458,"INCLINATION":53.16,"RA_OF_ASC_NODE":117.8139,"ARG_OF_PERICENTER":85.5253,"MEAN_ANOMALY":274.5868,"EPHEMERIS_TYPE":0,"CLASSIFICATION_TYPE":"U","NORAD_CAT_ID":64494,"ELEMENT_SET_NO":999,"REV_AT_EPOCH":4098,"BSTAR":0.00057170817,"MEAN_MOTION_DOT":0.00016612,"MEAN_MOTION_DDOT":0}]
